<?xml version="1.0" encoding="utf-8" ?>
<kml xmlns="http://www.opengis.net/kml/2.2">
<Document id="root_doc">
<Schema name="mapas_flash_diego" id="mapas_flash_diego">
	<SimpleField name="id" type="float"></SimpleField>
	<SimpleField name="Mapa Flash" type="string"></SimpleField>
</Schema>
<Folder><name>mapas_flash_diego</name>
  <Placemark id="mapas_flash_diego.1">
	<Style><LineStyle><color>ff0000ff</color></LineStyle><PolyStyle><fill>0</fill></PolyStyle></Style>
	<ExtendedData><SchemaData schemaUrl="#mapas_flash_diego">
		<SimpleData name="id">1</SimpleData>
		<SimpleData name="Mapa Flash">C1A</SimpleData>
	</SchemaData></ExtendedData>
      <MultiGeometry><Polygon><outerBoundaryIs><LinearRing><coordinates>-58.3814159766385,-34.6037768423408 -58.3816694704347,-34.6019851760717 -58.3818083695543,-34.5993011668035 -58.3819030335753,-34.5970101771203 -58.3820262480143,-34.5952605612854 -58.382062185559,-34.5945421093275 -58.3820981231037,-34.5940518679545 -58.3819646407948,-34.5925938063719 -58.381692542242,-34.5903496069278 -58.3815487920631,-34.5888872528976 -58.3811432112014,-34.5890985773253 -58.3751937461163,-34.5923795441965 -58.3735681183222,-34.593210169361 -58.3721667150514,-34.5952866959386 -58.3710455924348,-34.597778459315 -58.3701767224069,-34.6010084117004 -58.3699524978836,-34.6030386031937 -58.3814159766385,-34.6037768423408</coordinates></LinearRing></outerBoundaryIs></Polygon></MultiGeometry>
  </Placemark>
  <Placemark id="mapas_flash_diego.2">
	<Style><LineStyle><color>ff0000ff</color></LineStyle><PolyStyle><fill>0</fill></PolyStyle></Style>
	<ExtendedData><SchemaData schemaUrl="#mapas_flash_diego">
		<SimpleData name="id">2</SimpleData>
		<SimpleData name="Mapa Flash">C2</SimpleData>
	</SchemaData></ExtendedData>
      <MultiGeometry><Polygon><outerBoundaryIs><LinearRing><coordinates>-58.3815508454946,-34.5888903760305 -58.3818824978355,-34.5919683098434 -58.3821083909736,-34.5940603204165 -58.3819355635974,-34.5964801470961 -58.3818104134084,-34.599146784455 -58.3939452133792,-34.5996275225297 -58.3986823278063,-34.599841183003 -58.4018944807397,-34.5994405691646 -58.4036790101472,-34.5984256721258 -58.404659919697,-34.5981010290705 -58.4160084860534,-34.597918218956 -58.4143537406028,-34.593965319716 -58.4098761940895,-34.5883027309471 -58.4060151213715,-34.5834411440365 -58.4018620347505,-34.5834411440365 -58.4005641951815,-34.5844295116615 -58.3978387320864,-34.5801821188605 -58.3815508454946,-34.5888903760305</coordinates></LinearRing></outerBoundaryIs></Polygon></MultiGeometry>
  </Placemark>
  <Placemark id="mapas_flash_diego.3">
	<Style><LineStyle><color>ff0000ff</color></LineStyle><PolyStyle><fill>0</fill></PolyStyle></Style>
	<ExtendedData><SchemaData schemaUrl="#mapas_flash_diego">
		<SimpleData name="id">3</SimpleData>
		<SimpleData name="Mapa Flash">C14</SimpleData>
	</SchemaData></ExtendedData>
      <MultiGeometry><Polygon><outerBoundaryIs><LinearRing><coordinates>-58.4160409320425,-34.5977579699425 -58.4232439416509,-34.5976511370951 -58.4268778924443,-34.5962622975746 -58.4446391989436,-34.5845479761999 -58.4445974591212,-34.5843457572857 -58.4445126274016,-34.5839509628432 -58.4444109297843,-34.5834235884988 -58.4443884770636,-34.5833072396941 -58.4443699865877,-34.5832376477036 -58.4443369678808,-34.5832463467056 -58.444309232167,-34.5831506576336 -58.444285458698,-34.5830723664927 -58.4402099662414,-34.5783416352799 -58.4438997914316,-34.5754934416915 -58.4407244130227,-34.5718563757068 -58.4488113811615,-34.5676791044776 -58.447908698032,-34.566722908664 -58.4457512625918,-34.5654322246497 -58.444300348233,-34.564569907734 -58.44258175123,-34.5635110082184 -58.4424656912042,-34.5634367873741 -58.4423346442736,-34.5633612454679 -58.441238859804,-34.5622590161634 -58.4353138496432,-34.5625491113887 -58.4345510516467,-34.5625219722781 -58.4346220098235,-34.5624927549731 -58.4352074147815,-34.5621275377943 -58.4386134072648,-34.5601407282503 -58.4414694738784,-34.5584606684424 -58.4404405803158,-34.5577740255354 -58.4369813691999,-34.5556556234049 -58.4341253025863,-34.5538293713753 -58.4340188653212,-34.5538439815506 -58.423114157694,-34.5626025503933 -58.4164302839133,-34.5663431953911 -58.4018295887613,-34.5767092464787 -58.4008562090845,-34.5786327014172 -58.3976765021403,-34.5802889741713 -58.4005966411707,-34.5841890989968 -58.4019593727182,-34.5833877184246 -58.4030625363519,-34.5833877184246 -58.4062422432961,-34.5834411440365 -58.4142239566459,-34.5938050630767 -58.4160409320425,-34.5977579699425</coordinates></LinearRing></outerBoundaryIs></Polygon></MultiGeometry>
  </Placemark>
  <Placemark id="mapas_flash_diego.4">
	<Style><LineStyle><color>ff0000ff</color></LineStyle><PolyStyle><fill>0</fill></PolyStyle></Style>
	<ExtendedData><SchemaData schemaUrl="#mapas_flash_diego">
		<SimpleData name="id">13</SimpleData>
		<SimpleData name="Mapa Flash">C13</SimpleData>
	</SchemaData></ExtendedData>
      <MultiGeometry><Polygon><outerBoundaryIs><LinearRing><coordinates>-58.4340898234979,-34.5538732018935 -58.4414694738784,-34.5584314497107 -58.4346397493676,-34.5625219723807 -58.4412211202599,-34.5623028422403 -58.4421435765574,-34.5632085759914 -58.4449097164604,-34.5649745898353 -58.4479824565086,-34.5667608696553 -58.4487781660822,-34.5676494503416 -58.4407244130227,-34.5718563757068 -58.4438997914316,-34.5755080480614 -58.4402652759169,-34.5782959654254 -58.444285458698,-34.5830680169827 -58.4443409301256,-34.5832474340808 -58.4532240356963,-34.5798081198638 -58.4579611501234,-34.5785258439771 -58.4602323693693,-34.5783655575595 -58.4633471843351,-34.575266626067 -58.4673014313677,-34.5725314722803 -58.4681126641495,-34.5729084479654 -58.4733296952327,-34.5666707253811 -58.4664644916336,-34.5622005813584 -58.4676922253492,-34.5616723263632 -58.4670460271069,-34.5612665604795 -58.4709487415752,-34.5569237438481 -58.4743763283396,-34.5524267826002 -58.4682207065077,-34.5489640403229 -58.475387482358,-34.5393786520527 -58.4663079505508,-34.5356064909101 -58.4601314743598,-34.5441714841811 -58.4541709875141,-34.549022484426 -58.4518293676818,-34.5461586750995 -58.4435272610038,-34.547619814621 -58.4401212685204,-34.5519446372479 -58.4377086905114,-34.550892674054 -58.4340898234979,-34.5538732018935</coordinates></LinearRing></outerBoundaryIs></Polygon></MultiGeometry>
  </Placemark>
  <Placemark id="mapas_flash_diego.5">
	<Style><LineStyle><color>ff0000ff</color></LineStyle><PolyStyle><fill>0</fill></PolyStyle></Style>
	<ExtendedData><SchemaData schemaUrl="#mapas_flash_diego">
		<SimpleData name="id">12</SimpleData>
		<SimpleData name="Mapa Flash">C12</SimpleData>
	</SchemaData></ExtendedData>
      <MultiGeometry><Polygon><outerBoundaryIs><LinearRing><coordinates>-58.4681046321417,-34.5729282887436 -58.5035756180662,-34.5937055910316 -58.5148579681672,-34.5811313097763 -58.5004357187457,-34.5497384213586 -58.4869536651659,-34.5440692010117 -58.4753165241813,-34.5393348138999 -58.4682207065078,-34.5490370954454 -58.4743771281999,-34.5523905868833 -58.4709356368822,-34.5569561214649 -58.4677643011611,-34.5604879041683 -58.4670304383496,-34.5612703261879 -58.4676758444829,-34.5616723263632 -58.4664767650677,-34.5622038269681 -58.4733474347769,-34.5666707253811 -58.4681046321417,-34.5729282887436</coordinates></LinearRing></outerBoundaryIs></Polygon></MultiGeometry>
  </Placemark>
  <Placemark id="mapas_flash_diego.6">
	<Style><LineStyle><color>ff0000ff</color></LineStyle><PolyStyle><fill>0</fill></PolyStyle></Style>
	<ExtendedData><SchemaData schemaUrl="#mapas_flash_diego">
		<SimpleData name="id">15</SimpleData>
		<SimpleData name="Mapa Flash">Frontera</SimpleData>
	</SchemaData></ExtendedData>
      <MultiGeometry><Polygon><outerBoundaryIs><LinearRing><coordinates>-58.3814207547462,-34.6037798453734 -58.3935904441263,-34.6046134431726 -58.4045889615203,-34.6047594555725 -58.4092012430081,-34.6041462017674 -58.4133168172587,-34.6042630123652 -58.4147005017051,-34.6041462017674 -58.4172904751559,-34.6036789576203 -58.4322981295355,-34.6021603964663 -58.4384360118231,-34.600057727332 -58.4413452970693,-34.5975461360993 -58.4452479967897,-34.5939830508082 -58.4510310881936,-34.5884044710096 -58.4602344309555,-34.5783647322885 -58.4579146182157,-34.5786107923455 -58.4540983488541,-34.5795820926223 -58.4533795742817,-34.5797714667754 -58.4529435177078,-34.579913497107 -58.4525601712692,-34.580071308302 -58.448263719301,-34.5817155229442 -58.4443727062313,-34.5832381704525 -58.4446448522874,-34.5845488985516 -58.4268698290152,-34.5962611065656 -58.4233928783552,-34.5976045460603 -58.4160841861514,-34.5977797756969 -58.4157648743561,-34.5979842098057 -58.4046953987854,-34.5981302339432 -58.4035245888692,-34.5985390998502 -58.4021054253345,-34.5993568257907 -58.3986994328512,-34.5998240941421 -58.381810622746,-34.599148546428 -58.3817418197263,-34.6007487952163 -58.3816697439144,-34.6019569138762 -58.3814207547462,-34.6037798453734</coordinates></LinearRing></outerBoundaryIs></Polygon></MultiGeometry>
  </Placemark>
  <Placemark id="mapas_flash_diego.7">
	<Style><LineStyle><color>ff0000ff</color></LineStyle><PolyStyle><fill>0</fill></PolyStyle></Style>
	<ExtendedData><SchemaData schemaUrl="#mapas_flash_diego">
		<SimpleData name="id">6</SimpleData>
		<SimpleData name="Mapa Flash">Control</SimpleData>
	</SchemaData></ExtendedData>
      <MultiGeometry><Polygon><outerBoundaryIs><LinearRing><coordinates>-58.4302955044985,-34.6108029593381 -58.4300696113603,-34.6129832255225 -58.429977200531,-34.615298640467 -58.4292379138969,-34.6149606277776 -58.4277388048889,-34.6221768992916 -58.435727207685,-34.6232753406608 -58.4367950661565,-34.623376734175 -58.4380888177661,-34.6232584414045 -58.4418468581561,-34.6229035620812 -58.4425450733105,-34.622920461131 -58.443612931782,-34.6231232494602 -58.4444548971152,-34.6219910082811 -58.4451325765298,-34.6197095798787 -58.4456665057656,-34.6172590869231 -58.4429557881073,-34.6162112678535 -58.440614713766,-34.614724018076 -58.4395879267742,-34.6146395144477 -58.4385611397824,-34.6142845982694 -58.4302955044985,-34.6108029593381</coordinates></LinearRing></outerBoundaryIs></Polygon></MultiGeometry>
  </Placemark>
</Folder>
</Document></kml>
