{
"type": "FeatureCollection",
"name": "mapa_flash",
"crs": { "type": "name", "properties": { "name": "urn:ogc:def:crs:OGC:1.3:CRS84" } },
"features": [
{ "type": "Feature", "properties": { "zona": "Frontera" }, "geometry": { "type": "Polygon", "coordinates": [ [ [ -58.381420754746202, -34.603779845373403 ], [ -58.393590444126303, -34.604613443172603 ], [ -58.404588961520297, -34.604759455572498 ], [ -58.409201243008098, -34.604146201767399 ], [ -58.413316817258703, -34.604263012365202 ], [ -58.414700501705099, -34.604146201767399 ], [ -58.417290475155902, -34.603678957620303 ], [ -58.432298129535504, -34.602160396466303 ], [ -58.4384360118231, -34.600057727332 ], [ -58.441345297069297, -34.597546136099297 ], [ -58.445247996789703, -34.593983050808198 ], [ -58.451031088193602, -34.588404471009603 ], [ -58.460234430955502, -34.578364732288499 ], [ -58.457914618215703, -34.578610792345501 ], [ -58.454098348854103, -34.579582092622303 ], [ -58.453379574281698, -34.579771466775398 ], [ -58.452943517707801, -34.579913497107 ], [ -58.452560171269198, -34.580071308302003 ], [ -58.448263719301004, -34.581715522944201 ], [ -58.444372706231299, -34.583238170452503 ], [ -58.444644852287396, -34.584548898551603 ], [ -58.426869829015203, -34.596261106565599 ], [ -58.423392878355202, -34.597604546060303 ], [ -58.416084186151402, -34.5977797756969 ], [ -58.4157648743561, -34.597984209805702 ], [ -58.4046953987854, -34.598130233943202 ], [ -58.403524588869203, -34.5985390998502 ], [ -58.402105425334497, -34.5993568257907 ], [ -58.398699432851203, -34.5998240941421 ], [ -58.381810622746002, -34.599148546427998 ], [ -58.381741819726301, -34.600748795216298 ], [ -58.381669743914401, -34.601956913876201 ], [ -58.381420754746202, -34.603779845373403 ] ] ] } },
{ "type": "Feature", "properties": { "zona": "C2" }, "geometry": { "type": "Polygon", "coordinates": [ [ [ -58.381882497835498, -34.591968309843402 ], [ -58.382108390973599, -34.594060320416503 ], [ -58.381935563597402, -34.596480147096102 ], [ -58.381810413408402, -34.599146784455002 ], [ -58.393945213379197, -34.599627522529701 ], [ -58.395199998655457, -34.599684117746079 ], [ -58.398699432851203, -34.5998240941421 ], [ -58.402021479827553, -34.599368342280776 ], [ -58.403679010147201, -34.598425672125799 ], [ -58.404659919697004, -34.598101029070499 ], [ -58.415864320153808, -34.597920541274419 ], [ -58.415978781283606, -34.597847259424491 ], [ -58.414353740602799, -34.593965319715998 ], [ -58.409876194089499, -34.588302730947099 ], [ -58.406015121371503, -34.583441144036499 ], [ -58.401862034750501, -34.583441144036499 ], [ -58.400564195181502, -34.584429511661497 ], [ -58.397838732086399, -34.580182118860499 ], [ -58.381550845494601, -34.588890376030498 ], [ -58.381882497835498, -34.591968309843402 ] ] ] } },
{ "type": "Feature", "properties": { "zona": "C14" }, "geometry": { "type": "Polygon", "coordinates": [ [ [ -58.418539100604995, -34.597720917866305 ], [ -58.42336403971472, -34.597605237481467 ], [ -58.425852498781857, -34.596654187097442 ], [ -58.426869829015203, -34.596261106565599 ], [ -58.437237147175303, -34.589429937628211 ], [ -58.444639198943598, -34.5845479761999 ], [ -58.444597459121198, -34.584345757285703 ], [ -58.4445126274016, -34.583950962843197 ], [ -58.444410929784297, -34.583423588498803 ], [ -58.444407311303102, -34.583404837721659 ], [ -58.444381933934807, -34.583282613537413 ], [ -58.444369986587702, -34.583237647703598 ], [ -58.444336967880801, -34.5832463467056 ], [ -58.444309232167001, -34.583150657633603 ], [ -58.444285458697998, -34.583072366492701 ], [ -58.440209966241397, -34.578341635279898 ], [ -58.443899791431598, -34.575493441691499 ], [ -58.4407244130227, -34.571856375706801 ], [ -58.448811381161498, -34.567679104477598 ], [ -58.447908698032002, -34.566722908663998 ], [ -58.445751262591799, -34.565432224649697 ], [ -58.444300348233, -34.564569907733997 ], [ -58.442581751230001, -34.563511008218399 ], [ -58.442465691204198, -34.563436787374101 ], [ -58.4423346442736, -34.563361245467902 ], [ -58.441238859804002, -34.562259016163402 ], [ -58.435313849643201, -34.562549111388698 ], [ -58.4345510516467, -34.562521972278098 ], [ -58.434622009823499, -34.5624927549731 ], [ -58.435207414781502, -34.562127537794296 ], [ -58.438613407264803, -34.560140728250303 ], [ -58.441469473878399, -34.5584606684424 ], [ -58.440440580315801, -34.557774025535402 ], [ -58.436981369199898, -34.555655623404903 ], [ -58.434125302586303, -34.553829371375301 ], [ -58.4340188653212, -34.5538439815506 ], [ -58.423114157694002, -34.562602550393301 ], [ -58.4164302839133, -34.566343195391099 ], [ -58.401829588761302, -34.5767092464787 ], [ -58.400856209084502, -34.578632701417199 ], [ -58.397849481665524, -34.580198871127322 ], [ -58.399290733612752, -34.582444934615062 ], [ -58.400596641170701, -34.584189098996802 ], [ -58.401840038684718, -34.583457895104821 ], [ -58.401862034750501, -34.583441144036499 ], [ -58.401868523539548, -34.583441144036499 ], [ -58.401959372718203, -34.583387718424603 ], [ -58.403062536351896, -34.583387718424603 ], [ -58.406242243296099, -34.583441144036499 ], [ -58.414109252968899, -34.593656125177034 ], [ -58.414353740602799, -34.593965319715998 ], [ -58.414926188300448, -34.595332797758104 ], [ -58.416040932042499, -34.597757969942499 ], [ -58.418539100604995, -34.597720917866305 ] ] ] } },
{ "type": "Feature", "properties": { "zona": "C13" }, "geometry": { "type": "Polygon", "coordinates": [ [ [ -58.441469473878399, -34.558431449710703 ], [ -58.441446399594625, -34.558445269577192 ], [ -58.441469473878399, -34.5584606684424 ], [ -58.438735395125079, -34.560068969804568 ], [ -58.434639749367598, -34.562521972380701 ], [ -58.438478967042279, -34.562394143646863 ], [ -58.441238859804002, -34.562259016163402 ], [ -58.442251136489482, -34.56327724653439 ], [ -58.443599066470966, -34.564137818700431 ], [ -58.444300348233, -34.564569907733997 ], [ -58.445751262591799, -34.565432224649697 ], [ -58.447618052977063, -34.566549030493988 ], [ -58.447982456508598, -34.566760869655297 ], [ -58.44868188014965, -34.567541926412183 ], [ -58.448811381161498, -34.567679104477598 ], [ -58.4407244130227, -34.571856375706801 ], [ -58.443899791431598, -34.575493441691499 ], [ -58.443892191470894, -34.57549930813726 ], [ -58.443899791431598, -34.575508048061401 ], [ -58.440880464833775, -34.577824074232048 ], [ -58.440266795142144, -34.578297768781511 ], [ -58.444285458697998, -34.5830680169827 ], [ -58.444340320823351, -34.583245463350174 ], [ -58.44435815684907, -34.583240764328373 ], [ -58.445105163222415, -34.582951542319293 ], [ -58.448263719301004, -34.581715522944201 ], [ -58.451186934400589, -34.580596834057509 ], [ -58.452811549412104, -34.579967824139544 ], [ -58.452943517707801, -34.579913497107 ], [ -58.452996109195873, -34.579896367250605 ], [ -58.453224035696302, -34.579808119863799 ], [ -58.457961150123403, -34.578525843977097 ], [ -58.460215280136858, -34.578366763595355 ], [ -58.460233051839033, -34.578364878569907 ], [ -58.463347184335099, -34.575266626066998 ], [ -58.467301431367702, -34.572531472280303 ], [ -58.468112664149501, -34.572908447965403 ], [ -58.4733296952327, -34.566670725381101 ], [ -58.466464491633602, -34.562200581358397 ], [ -58.467692225349197, -34.561672326363201 ], [ -58.467046027106903, -34.561266560479503 ], [ -58.470948741575199, -34.556923743848103 ], [ -58.474376328339602, -34.5524267826002 ], [ -58.468220706507701, -34.5489640403229 ], [ -58.475387482358002, -34.539378652052697 ], [ -58.466307950550799, -34.535606490910098 ], [ -58.460131474359798, -34.544171484181099 ], [ -58.454170987514097, -34.549022484425997 ], [ -58.451829367681803, -34.546158675099498 ], [ -58.443527261003801, -34.547619814621001 ], [ -58.4401212685204, -34.5519446372479 ], [ -58.4377086905114, -34.550892674053998 ], [ -58.43413528842823, -34.553835756612955 ], [ -58.436981369199898, -34.555655623404903 ], [ -58.440440580315801, -34.557774025535402 ], [ -58.440881364366831, -34.558068187393495 ], [ -58.441469473878399, -34.558431449710703 ] ] ] } },
{ "type": "Feature", "properties": { "zona": "C12" }, "geometry": { "type": "Polygon", "coordinates": [ [ [ -58.503575618066201, -34.5937055910316 ], [ -58.514857968167199, -34.581131309776303 ], [ -58.500435718745699, -34.549738421358597 ], [ -58.486953665165899, -34.544069201011702 ], [ -58.475316524181302, -34.539334813899899 ], [ -58.475308470455793, -34.539345825951784 ], [ -58.475387482358002, -34.539378652052697 ], [ -58.470668253518234, -34.545690505766274 ], [ -58.468258561702449, -34.548985335130617 ], [ -58.47232056897181, -34.551270349494139 ], [ -58.474377128199897, -34.552390586883298 ], [ -58.474357730219516, -34.552416320538292 ], [ -58.474376328339602, -34.5524267826002 ], [ -58.471973908446834, -34.555578734659058 ], [ -58.470935636882203, -34.5569561214649 ], [ -58.467764301161097, -34.560487904168298 ], [ -58.467321882295835, -34.560959597591982 ], [ -58.467046027106903, -34.561266560479503 ], [ -58.467692225349197, -34.561672326363201 ], [ -58.46713321176869, -34.561912852230115 ], [ -58.466476765067704, -34.562203826968101 ], [ -58.473347434776898, -34.566670725381101 ], [ -58.468104632141703, -34.572928288743597 ], [ -58.503575618066201, -34.5937055910316 ] ] ] } },
{ "type": "Feature", "properties": { "zona": "C1A" }, "geometry": { "type": "Polygon", "coordinates": [ [ [ -58.381565855711884, -34.602717513535723 ], [ -58.381669743914401, -34.601956913876201 ], [ -58.381678713709704, -34.601806564170815 ], [ -58.381782901805963, -34.599793291395613 ], [ -58.381810622746002, -34.599148546427998 ], [ -58.381814669162125, -34.599148708283522 ], [ -58.381814741569976, -34.599146955921533 ], [ -58.381810413408402, -34.599146784455002 ], [ -58.381846670034598, -34.598374246477277 ], [ -58.381903033575298, -34.597010177120303 ], [ -58.381925980879039, -34.596684330845122 ], [ -58.381935563597402, -34.596480147096102 ], [ -58.382034615536803, -34.595093280438171 ], [ -58.382062185559001, -34.594542109327499 ], [ -58.382098123103702, -34.594051867954498 ], [ -58.382045999874791, -34.593482512522584 ], [ -58.381882497835498, -34.591968309843402 ], [ -58.381832154399092, -34.591501092380824 ], [ -58.381692542242, -34.590349606927802 ], [ -58.3815487920631, -34.588887252897599 ], [ -58.381143211201397, -34.589098577325302 ], [ -58.375193746116302, -34.592379544196497 ], [ -58.373568118322197, -34.593210169361001 ], [ -58.372166715051399, -34.595286695938597 ], [ -58.371045592434797, -34.597778459315002 ], [ -58.370176722406903, -34.601008411700398 ], [ -58.369952497883602, -34.603038603193703 ], [ -58.3814159766385, -34.6037768423408 ], [ -58.381565855711884, -34.602717513535723 ] ] ] } },
{ "type": "Feature", "properties": { "zona": "C6" }, "geometry": { "type": "Polygon", "coordinates": [ [ [ -58.430069611360302, -34.612983225522498 ], [ -58.429977200530999, -34.615298640467003 ], [ -58.429237913896898, -34.614960627777599 ], [ -58.427738804888897, -34.622176899291603 ], [ -58.435727207684998, -34.623275340660797 ], [ -58.436795066156499, -34.623376734174997 ], [ -58.438088817766101, -34.623258441404502 ], [ -58.441846858156097, -34.622903562081198 ], [ -58.442545073310498, -34.622920461131002 ], [ -58.443612931781999, -34.6231232494602 ], [ -58.4444548971152, -34.6219910082811 ], [ -58.445132576529801, -34.619709579878702 ], [ -58.445666505765601, -34.617259086923099 ], [ -58.442955788107298, -34.616211267853501 ], [ -58.440614713766003, -34.614724018075997 ], [ -58.439587926774202, -34.614639514447703 ], [ -58.438561139782401, -34.6142845982694 ], [ -58.430295504498503, -34.610802959338102 ], [ -58.430069611360302, -34.612983225522498 ] ] ] } }
]
}
