<?xml version="1.0" encoding="utf-8" ?>
<kml xmlns="http://www.opengis.net/kml/2.2">
<Document id="root_doc">
<Schema name="mapas_flash_fronteras" id="mapas_flash_fronteras">
	<SimpleField name="id" type="float"></SimpleField>
	<SimpleField name="Mapa Flash" type="string"></SimpleField>
	<SimpleField name="Tipo" type="string"></SimpleField>
	<SimpleField name="Tablero" type="string"></SimpleField>
</Schema>
<Folder><name>mapas_flash_fronteras</name>
  <Placemark id="mapas_flash_fronteras.1">
	<Style><LineStyle><color>ff0000ff</color></LineStyle><PolyStyle><fill>0</fill></PolyStyle></Style>
	<ExtendedData><SchemaData schemaUrl="#mapas_flash_fronteras">
		<SimpleData name="id">1</SimpleData>
		<SimpleData name="Mapa Flash">C1A</SimpleData>
		<SimpleData name="Tipo">Norte</SimpleData>
		<SimpleData name="Tablero">C1A</SimpleData>
	</SchemaData></ExtendedData>
      <MultiGeometry><Polygon><outerBoundaryIs><LinearRing><coordinates>-58.3814159766385,-34.6037768423408 -58.3816694704347,-34.6019851760717 -58.3818083695543,-34.5993011668035 -58.3819030335753,-34.5970101771203 -58.3820262480143,-34.5952605612854 -58.382062185559,-34.5945421093275 -58.3820981231037,-34.5940518679545 -58.3819646407948,-34.5925938063719 -58.381692542242,-34.5903496069278 -58.3815487920631,-34.5888872528976 -58.3811432112014,-34.5890985773253 -58.3751937461163,-34.5923795441965 -58.3735681183222,-34.593210169361 -58.3721667150514,-34.5952866959386 -58.3710455924348,-34.597778459315 -58.3701767224069,-34.6010084117004 -58.3699524978836,-34.6030386031937 -58.3814159766385,-34.6037768423408</coordinates></LinearRing></outerBoundaryIs></Polygon></MultiGeometry>
  </Placemark>
  <Placemark id="mapas_flash_fronteras.2">
	<Style><LineStyle><color>ff0000ff</color></LineStyle><PolyStyle><fill>0</fill></PolyStyle></Style>
	<ExtendedData><SchemaData schemaUrl="#mapas_flash_fronteras">
		<SimpleData name="id">2</SimpleData>
		<SimpleData name="Mapa Flash">C2</SimpleData>
		<SimpleData name="Tipo">Norte</SimpleData>
		<SimpleData name="Tablero">C2</SimpleData>
	</SchemaData></ExtendedData>
      <MultiGeometry><Polygon><outerBoundaryIs><LinearRing><coordinates>-58.3815508454946,-34.5888903760305 -58.3818824978355,-34.5919683098434 -58.3821083909736,-34.5940603204165 -58.3819355635974,-34.5964801470961 -58.3818340473715,-34.5990454248818 -58.3823761347805,-34.5990855844012 -58.3929305766348,-34.599683512726 -58.3938954922229,-34.5997192098033 -58.3958361651474,-34.5997549068652 -58.398785324414,-34.5998590315464 -58.4020647494774,-34.5994113220074 -58.4044716175736,-34.5981306750158 -58.404659919697,-34.5981010290705 -58.4159992922431,-34.5978817218093 -58.4143537406028,-34.593965319716 -58.4098761940895,-34.5883027309471 -58.4061791929121,-34.5834486770767 -58.4020159616106,-34.5833861949462 -58.400606534347,-34.5842609404986 -58.3978387320864,-34.5801821188605 -58.3815508454946,-34.5888903760305</coordinates></LinearRing></outerBoundaryIs></Polygon></MultiGeometry>
  </Placemark>
  <Placemark id="mapas_flash_fronteras.3">
	<Style><LineStyle><color>ff0000ff</color></LineStyle><PolyStyle><fill>0</fill></PolyStyle></Style>
	<ExtendedData><SchemaData schemaUrl="#mapas_flash_fronteras">
		<SimpleData name="id">14</SimpleData>
		<SimpleData name="Mapa Flash">C14</SimpleData>
		<SimpleData name="Tipo">Norte</SimpleData>
		<SimpleData name="Tablero">C14</SimpleData>
	</SchemaData></ExtendedData>
      <MultiGeometry><Polygon><outerBoundaryIs><LinearRing><coordinates>-58.4160276735561,-34.5978778280947 -58.4232439416509,-34.5976511370951 -58.4268778924443,-34.5962622975746 -58.4446391989436,-34.5845479761999 -58.4445974591212,-34.5843457572857 -58.4445126274016,-34.5839509628432 -58.4444109297843,-34.5834235884988 -58.4443884770636,-34.5833072396941 -58.4443699865877,-34.5832376477036 -58.4443369678808,-34.5832463467056 -58.444309232167,-34.5831506576336 -58.444285458698,-34.5830723664927 -58.4402099662414,-34.5783416352799 -58.4438997914316,-34.5754934416915 -58.4407244130227,-34.5718563757068 -58.4488113811615,-34.5676791044776 -58.447908698032,-34.566722908664 -58.4457512625918,-34.5654322246497 -58.444300348233,-34.564569907734 -58.44258175123,-34.5635110082184 -58.4424656912042,-34.5634367873741 -58.4423346442736,-34.5633612454679 -58.441238859804,-34.5622590161634 -58.4353138496432,-34.5625491113887 -58.4345510516467,-34.5625219722781 -58.4346220098235,-34.5624927549731 -58.4352074147815,-34.5621275377943 -58.4386134072648,-34.5601407282503 -58.4414694738784,-34.5584606684424 -58.4404405803158,-34.5577740255354 -58.4369813691999,-34.5556556234049 -58.4341253025863,-34.5538293713753 -58.4340188653212,-34.5538439815506 -58.423114157694,-34.5626025503933 -58.4164302839133,-34.5663431953911 -58.4018295887613,-34.5767092464787 -58.4008562090845,-34.5786327014172 -58.3976765021403,-34.5802889741713 -58.4005966411707,-34.5841890989968 -58.4019593727182,-34.5833877184246 -58.4030625363519,-34.5833877184246 -58.406057933577,-34.5834768454832 -58.414375554537,-34.5939271583221 -58.4160276735561,-34.5978778280947</coordinates></LinearRing></outerBoundaryIs></Polygon></MultiGeometry>
  </Placemark>
  <Placemark id="mapas_flash_fronteras.4">
	<Style><LineStyle><color>ff0000ff</color></LineStyle><PolyStyle><fill>0</fill></PolyStyle></Style>
	<ExtendedData><SchemaData schemaUrl="#mapas_flash_fronteras">
		<SimpleData name="id">13</SimpleData>
		<SimpleData name="Mapa Flash">C13</SimpleData>
		<SimpleData name="Tipo">Norte</SimpleData>
		<SimpleData name="Tablero">C13</SimpleData>
	</SchemaData></ExtendedData>
      <MultiGeometry><Polygon><outerBoundaryIs><LinearRing><coordinates>-58.4340898234979,-34.5538732018935 -58.4414694738784,-34.5584314497107 -58.4346397493676,-34.5625219723807 -58.4412211202599,-34.5623028422403 -58.4421435765574,-34.5632085759914 -58.4449097164604,-34.5649745898353 -58.4479824565086,-34.5667608696553 -58.4487781660822,-34.5676494503416 -58.4407244130227,-34.5718563757068 -58.4438997914316,-34.5755080480614 -58.4402652759169,-34.5782959654254 -58.444285458698,-34.5830680169827 -58.4443409301256,-34.5832474340808 -58.4532240356963,-34.5798081198638 -58.4579611501234,-34.5785258439771 -58.4602323693693,-34.5783655575595 -58.4633471843351,-34.575266626067 -58.4673014313677,-34.5725314722803 -58.4681126641495,-34.5729084479654 -58.4733296952327,-34.5666707253811 -58.4664644916336,-34.5622005813584 -58.4676922253492,-34.5616723263632 -58.4670460271069,-34.5612665604795 -58.4709487415752,-34.5569237438481 -58.4743763283396,-34.5524267826002 -58.4682207065077,-34.5489640403229 -58.475387482358,-34.5393786520527 -58.4663079505508,-34.5356064909101 -58.4601314743598,-34.5441714841811 -58.4541709875141,-34.549022484426 -58.4518293676818,-34.5461586750995 -58.4435272610038,-34.547619814621 -58.4401212685204,-34.5519446372479 -58.4377086905114,-34.550892674054 -58.4340898234979,-34.5538732018935</coordinates></LinearRing></outerBoundaryIs></Polygon></MultiGeometry>
  </Placemark>
  <Placemark id="mapas_flash_fronteras.5">
	<Style><LineStyle><color>ff0000ff</color></LineStyle><PolyStyle><fill>0</fill></PolyStyle></Style>
	<ExtendedData><SchemaData schemaUrl="#mapas_flash_fronteras">
		<SimpleData name="id">12</SimpleData>
		<SimpleData name="Mapa Flash">C12</SimpleData>
		<SimpleData name="Tipo">Centro</SimpleData>
		<SimpleData name="Tablero">C12</SimpleData>
	</SchemaData></ExtendedData>
      <MultiGeometry><Polygon><outerBoundaryIs><LinearRing><coordinates>-58.4681046321417,-34.5729282887436 -58.5035756180662,-34.5937055910316 -58.5148579681672,-34.5811313097763 -58.5004357187457,-34.5497384213586 -58.4869536651659,-34.5440692010117 -58.4753165241813,-34.5393348138999 -58.4682207065078,-34.5490370954454 -58.4743771281999,-34.5523905868833 -58.4709356368822,-34.5569561214649 -58.4677643011611,-34.5604879041683 -58.4670304383496,-34.5612703261879 -58.4676758444829,-34.5616723263632 -58.4664767650677,-34.5622038269681 -58.4733474347769,-34.5666707253811 -58.4681046321417,-34.5729282887436</coordinates></LinearRing></outerBoundaryIs></Polygon></MultiGeometry>
  </Placemark>
  <Placemark id="mapas_flash_fronteras.6">
	<Style><LineStyle><color>ff0000ff</color></LineStyle><PolyStyle><fill>0</fill></PolyStyle></Style>
	<ExtendedData><SchemaData schemaUrl="#mapas_flash_fronteras">
		<SimpleData name="id">99</SimpleData>
		<SimpleData name="Mapa Flash">Frontera</SimpleData>
		<SimpleData name="Tipo">Frontera Norte</SimpleData>
		<SimpleData name="Tablero">Frontera Norte</SimpleData>
	</SchemaData></ExtendedData>
      <MultiGeometry><Polygon><outerBoundaryIs><LinearRing><coordinates>-58.3814207547462,-34.6037798453734 -58.3935904441263,-34.6046134431726 -58.4045889615203,-34.6047594555725 -58.4092012430081,-34.6041462017674 -58.4133168172587,-34.6042630123652 -58.4147005017051,-34.6041462017674 -58.4172904751559,-34.6036789576203 -58.4322981295355,-34.6021603964663 -58.4384360118231,-34.600057727332 -58.4413452970693,-34.5975461360993 -58.4452479967897,-34.5939830508082 -58.4510310881936,-34.5884044710096 -58.4602344309555,-34.5783647322885 -58.4579146182157,-34.5786107923455 -58.4540983488541,-34.5795820926223 -58.4533795742817,-34.5797714667754 -58.4529435177078,-34.579913497107 -58.4525601712692,-34.580071308302 -58.448263719301,-34.5817155229442 -58.4443727062313,-34.5832381704525 -58.4446448522874,-34.5845488985516 -58.4268698290152,-34.5962611065656 -58.4233928783552,-34.5976045460603 -58.416108087276,-34.5979011903792 -58.4159165134138,-34.5978856155292 -58.4046362710502,-34.5981107653797 -58.4044824593218,-34.5981306750158 -58.4042981496027,-34.5982243815627 -58.4020810120997,-34.5994157841575 -58.3985249186963,-34.5998352251826 -58.3943508456465,-34.5997549068652 -58.3894395337205,-34.5995228756885 -58.3881710491833,-34.5994425570532 -58.3825116566328,-34.5991168195695 -58.3818340473715,-34.5990945087362 -58.3817418197263,-34.6007487952163 -58.3816697439144,-34.6019569138762 -58.3814207547462,-34.6037798453734</coordinates></LinearRing></outerBoundaryIs></Polygon></MultiGeometry>
  </Placemark>
  <Placemark id="mapas_flash_fronteras.7">
	<Style><LineStyle><color>ff0000ff</color></LineStyle><PolyStyle><fill>0</fill></PolyStyle></Style>
	<ExtendedData><SchemaData schemaUrl="#mapas_flash_fronteras">
		<SimpleData name="id">0</SimpleData>
		<SimpleData name="Mapa Flash">Frontera Sur-este</SimpleData>
		<SimpleData name="Tipo">Frontera Sur-este</SimpleData>
		<SimpleData name="Tablero">Frontera Sur-este</SimpleData>
	</SchemaData></ExtendedData>
      <MultiGeometry><Polygon><outerBoundaryIs><LinearRing><coordinates>-58.3686494476149,-34.6170992608949 -58.3686485436076,-34.6171050888917 -58.3686475736341,-34.6171094687481 -58.3686465156131,-34.6171155637611 -58.3686451930868,-34.6171231825267 -58.368644399571,-34.6171318896865 -58.3686096365381,-34.6172537494546 -58.3685929620797,-34.6173886872735 -58.3685846248505,-34.6174893187244 -58.3685707294685,-34.6175602180824 -58.3685540550101,-34.6177729157933 -58.3680094762749,-34.6214507912352 -58.368340374927,-34.6214574874057 -58.3681811237036,-34.6270597541164 -58.3706097048602,-34.6294184901007 -58.3708087688894,-34.6266993857693 -58.3746706110565,-34.6268304289857 -58.3790500196995,-34.6292546911574 -58.3796870245931,-34.6279442879689 -58.3813591624386,-34.6280098086198 -58.3813591624386,-34.6308271476633 -58.3832701771193,-34.6322685399445 -58.3902772309482,-34.6340374871511 -58.3911380943702,-34.6274914104909 -58.3916260765932,-34.6182286334679 -58.3916843657292,-34.6182322691632 -58.3916464058582,-34.6152696903236 -58.3917792654068,-34.61156761982 -58.3919564114717,-34.6089328530554 -58.392184170698,-34.6055325265182 -58.3922339421941,-34.6045023650126 -58.3920678131937,-34.6044886910706 -58.3871503947819,-34.6040921457733 -58.3819646973743,-34.6038020178136 -58.3819074259071,-34.6038004198451 -58.3814696389294,-34.6037812442211 -58.3814152795707,-34.6037788472678 -58.3813783928631,-34.6037764503144 -58.3806949830612,-34.6037411805819 -58.3740393523376,-34.6033089605142 -58.3699586662001,-34.603053793394 -58.3686494476149,-34.6170992608949</coordinates></LinearRing></outerBoundaryIs></Polygon><Polygon><outerBoundaryIs><LinearRing><coordinates>-58.4594852736078,-34.6140378183128 -58.4516430117728,-34.6307213895927 -58.4163641645735,-34.6255020263199 -58.3914863422772,-34.622553628759 -58.3912383880532,-34.6270365923748 -58.3967416065921,-34.6282231686761 -58.4116413198696,-34.630408429619 -58.411612990052,-34.6327242761889 -58.4105339317761,-34.6353195245236 -58.4110964254005,-34.6381538535946 -58.4237356588088,-34.6402548709967 -58.4253749822118,-34.6328720073702 -58.4453231863851,-34.6368220233509 -58.4495872582361,-34.638994831538 -58.4536897920481,-34.6434419302855 -58.456309349054,-34.6413683953719 -58.4564779385452,-34.6415154538282 -58.4563949381061,-34.6413766578688 -58.4629166548733,-34.6360108978149 -58.4706528599083,-34.6187614945563 -58.469030752401,-34.6175806006974 -58.4594852736078,-34.6140378183128</coordinates></LinearRing></outerBoundaryIs></Polygon></MultiGeometry>
  </Placemark>
  <Placemark id="mapas_flash_fronteras.8">
	<Style><LineStyle><color>ff0000ff</color></LineStyle><PolyStyle><fill>0</fill></PolyStyle></Style>
	<ExtendedData><SchemaData schemaUrl="#mapas_flash_fronteras">
		<SimpleData name="id">6</SimpleData>
		<SimpleData name="Mapa Flash">C6</SimpleData>
		<SimpleData name="Tipo">Centro</SimpleData>
		<SimpleData name="Tablero">C6 Centro</SimpleData>
	</SchemaData></ExtendedData>
      <MultiGeometry><Polygon><outerBoundaryIs><LinearRing><coordinates>-58.4306058283309,-34.6070470885963 -58.4305599020217,-34.6077536518876 -58.4305494460249,-34.6079188671904 -58.430512846566,-34.6085137378833 -58.4304739241313,-34.6087252851569 -58.4304139280028,-34.6094654376025 -58.4303706394215,-34.6101719309269 -58.4303302315506,-34.6109154678478 -58.4303186505133,-34.6111286421292 -58.4302546049882,-34.6117598449431 -58.4302328303355,-34.6118973792485 -58.4301272441571,-34.6133281779149 -58.4300858329793,-34.6140153046343 -58.4300285387507,-34.6154492138688 -58.4292524794516,-34.6151056808615 -58.4292190265351,-34.6152573679322 -58.4287930040401,-34.6171870371001 -58.4285882637826,-34.6181141961592 -58.4285873307402,-34.6181187148184 -58.4285509638616,-34.6182948253391 -58.4283175112016,-34.6194252928435 -58.4282839653739,-34.6195876832223 -58.4282775041904,-34.6196205965817 -58.4280687504862,-34.6206839283811 -58.4279416336639,-34.6213313793462 -58.4278429433195,-34.6218338335437 -58.4277953059251,-34.6220745322699 -58.4274914641565,-34.6236075971621 -58.4274620100176,-34.6237563964794 -58.4272374019672,-34.6248525654871 -58.4271761134203,-34.6251348820359 -58.4270405695629,-34.6257316934905 -58.4270118431471,-34.6258632654563 -58.426971596948,-34.626047599777 -58.4268193197769,-34.6267201124467 -58.4267558142259,-34.6269984842493 -58.4270800496556,-34.627045904908 -58.4275100741048,-34.6271073248692 -58.428160099665,-34.6272001641651 -58.4283671130969,-34.6272297303103 -58.4296338215234,-34.627412903802 -58.4309337595038,-34.6276008612372 -58.4323337203357,-34.6278032662996 -58.4325450821081,-34.6278338126087 -58.4338182822498,-34.6280201136966 -58.4347631543296,-34.6281583665836 -58.4356474581901,-34.6282877249675 -58.4371695224437,-34.6285103839034 -58.4385927697711,-34.6287185678087 -58.4395276056056,-34.628855303433 -58.4417593634747,-34.6291817032881 -58.4429251742539,-34.6293521156251 -58.4444775206577,-34.6295830689184 -58.4460608887631,-34.6298184435645 -58.4464236542022,-34.6298723678905 -58.4475134873018,-34.6300365279033 -58.4482222390791,-34.6301433083558 -58.4484405513797,-34.6301761797896 -58.4490540167264,-34.630268549158 -58.4493589381783,-34.6303133726667 -58.4504979422975,-34.6304806808291 -58.4515763751329,-34.6306390990819 -58.4519952454565,-34.6297454449785 -58.4521028802275,-34.6295196016329 -58.4525687796211,-34.6285418614587 -58.4526691672806,-34.6283312287465 -58.4526711165222,-34.6283272860134 -58.4526716259215,-34.6283262521049 -58.4528705358549,-34.6279246826956 -58.4534370513215,-34.6267810966534 -58.4539380234895,-34.6257644085877 -58.4540181068973,-34.6256498224597 -58.4540312405246,-34.6256310301889 -58.4545748928583,-34.6244799016704 -58.4547746325372,-34.6240469462431 -58.4550485767184,-34.6234531368557 -58.4555577810083,-34.6223386926784 -58.4560760031224,-34.6212043861374 -58.456623010347,-34.6200071193427 -58.4572246136626,-34.6186903411771 -58.4572947329529,-34.6185368876207 -58.4577657088702,-34.6175060970158 -58.4581985906543,-34.6165606577218 -58.458499157278,-34.6159005038147 -58.459033060621,-34.6147344929947 -58.4594483620377,-34.6138856719602 -58.4595438568808,-34.6137419370003 -58.4600362426917,-34.6127562085241 -58.4604853424272,-34.6118569595956 -58.460552638707,-34.6117210405818 -58.461074813928,-34.6106660801095 -58.4616405882431,-34.6095229457997 -58.462192889761,-34.6084069924748 -58.4627046323134,-34.6073730117801 -58.4625100054773,-34.6072420213014 -58.4621504801479,-34.6069978556411 -58.4616233794326,-34.606639919254 -58.461540459772,-34.6065836108185 -58.4605130118577,-34.6058858949687 -58.4596535397432,-34.6053040235468 -58.4595130070452,-34.6052090160579 -58.4587824070201,-34.6047148944397 -58.4584739254559,-34.604491844775 -58.4580800805224,-34.6045928208871 -58.45656329131,-34.6049862894851 -58.455803357362,-34.6051834393928 -58.4555245781709,-34.6052557496338 -58.454982349409,-34.6053967787283 -58.4540018021279,-34.6056517929635 -58.4530692041112,-34.6058943370582 -58.4529588148562,-34.6059231320756 -58.4524282466382,-34.6060604881746 -58.4520150520166,-34.6061672880027 -58.4515075640087,-34.606298444697 -58.4510499036093,-34.6064148843981 -58.4510137652973,-34.6064240828627 -58.4509883574839,-34.6064305500761 -58.4507387492765,-34.6064940829351 -58.4506559556779,-34.6065151315752 -58.4502369641098,-34.606621784176 -58.4492899508857,-34.6068576785813 -58.4490615867772,-34.6069146271066 -58.4470400254597,-34.6074182057012 -58.4462474253216,-34.6076156442747 -58.4456777355072,-34.6073574580687 -58.4451314561059,-34.6071751198909 -58.4441672392367,-34.6069229259566 -58.4429800527898,-34.6066123760783 -58.4428240218715,-34.6065715037178 -58.4415997164355,-34.606239103216 -58.4414652340414,-34.6062035152908 -58.4403350497274,-34.605893653577 -58.4401415480756,-34.6058405879173 -58.439285357989,-34.6056058398189 -58.4392016360998,-34.6055828639918 -58.4385110441802,-34.605232040982 -58.4379749764426,-34.6049597123982 -58.4371890965911,-34.6045604406513 -58.4371745575828,-34.6045530538966 -58.4370573539651,-34.6044934719289 -58.4370532902874,-34.6044914058704 -58.4370522732679,-34.6044909215821 -58.4370245564896,-34.6044777339618 -58.4368521539,-34.6043957041701 -58.4366161625997,-34.6042834180673 -58.4353380037341,-34.6036751558046 -58.4351483602091,-34.6035749700857 -58.4349717427515,-34.6034816154581 -58.4339139202579,-34.6029596624376 -58.4338657223514,-34.6029358466642 -58.4333340897605,-34.6026734568799 -58.4323301489925,-34.6039281885424 -58.4315294901374,-34.604943799439 -58.4306691121634,-34.6059413604021 -58.4306058283309,-34.6070470885963</coordinates></LinearRing></outerBoundaryIs></Polygon></MultiGeometry>
  </Placemark>
  <Placemark id="mapas_flash_fronteras.9">
	<Style><LineStyle><color>ff0000ff</color></LineStyle><PolyStyle><fill>0</fill></PolyStyle></Style>
	<ExtendedData><SchemaData schemaUrl="#mapas_flash_fronteras">
		<SimpleData name="id">5</SimpleData>
		<SimpleData name="Mapa Flash">C5</SimpleData>
		<SimpleData name="Tipo">Centro</SimpleData>
		<SimpleData name="Tablero">C5 Centro</SimpleData>
	</SchemaData></ExtendedData>
      <MultiGeometry><Polygon><outerBoundaryIs><LinearRing><coordinates>-58.4128163384983,-34.6154434604642 -58.4127540403586,-34.6166296036017 -58.4126875829795,-34.6180699094527 -58.4126822628094,-34.618277379144 -58.412642065306,-34.6193945849918 -58.412635307155,-34.6195831102842 -58.4125438594995,-34.6206423349386 -58.4124367949405,-34.6218833904145 -58.4123563839458,-34.6218685673352 -58.4120418689701,-34.6229748135856 -58.4123334453278,-34.6230328941782 -58.412219729458,-34.6239925980001 -58.4121266481757,-34.6247781502612 -58.4120940740733,-34.6249692698097 -58.4120895979275,-34.6249954256327 -58.4163641645735,-34.6255020263199 -58.4267467792967,-34.6270380923273 -58.4267558142259,-34.6269984842493 -58.4267558142259,-34.6269984842493 -58.4268193197769,-34.6267201124467 -58.426971596948,-34.626047599777 -58.4270118431471,-34.6258632654563 -58.4270405695629,-34.6257316934905 -58.4271761134203,-34.6251348820359 -58.4272374019672,-34.6248525654871 -58.4274620100176,-34.6237563964794 -58.4274914641565,-34.623607597162 -58.4277953059251,-34.6220745322699 -58.4278429433195,-34.6218338335437 -58.4279416336639,-34.6213313793462 -58.4280687504862,-34.6206839283811 -58.4282775041904,-34.6196205965817 -58.4282839653739,-34.6195876832223 -58.4283175112016,-34.6194252928435 -58.4285509638615,-34.6182948253391 -58.4285769278334,-34.6181690920131 -58.4285873307402,-34.6181187148184 -58.4285882637826,-34.6181141961592 -58.4287930040401,-34.6171870371001 -58.4292190265351,-34.6152573679322 -58.4292524794516,-34.6151056808614 -58.4300285387507,-34.6154492138688 -58.4300858329793,-34.6140153046343 -58.4301272441571,-34.6133281779149 -58.4302328303355,-34.6118973792485 -58.4302546049882,-34.6117598449431 -58.4303186505133,-34.6111286421292 -58.4303302315506,-34.6109154678478 -58.4303706394215,-34.6101719309269 -58.4304139280028,-34.6094654376025 -58.4304739241313,-34.6087252851569 -58.430512846566,-34.6085137378833 -58.4305494460249,-34.6079188671904 -58.4305546740233,-34.607836259539 -58.4305599020217,-34.6077536518876 -58.4306058283309,-34.6070470885963 -58.4306691121634,-34.6059413604021 -58.4315294901374,-34.6049437994389 -58.4323301489925,-34.6039281885424 -58.4333340897605,-34.6026734568799 -58.4331418075004,-34.6025786183553 -58.4322951067261,-34.6021607023316 -58.4172904751559,-34.6036789576203 -58.4147005017051,-34.6041462017674 -58.4133168172587,-34.6042630123652 -58.4132120734816,-34.604260039467 -58.4132219455173,-34.6043023034557 -58.4132288181709,-34.6043317689812 -58.4134123401703,-34.6051190997691 -58.4136448731501,-34.6061168365451 -58.4139082529045,-34.607246350613 -58.4139369837026,-34.6073460841006 -58.4140989176591,-34.6079070140655 -58.4146599808851,-34.6081900636068 -58.4146220398713,-34.6088462702349 -58.4145829782171,-34.609376415152 -58.4144670312592,-34.6107364191075 -58.4140142540221,-34.6115504940252 -58.4135612124719,-34.6123651304441 -58.413435338726,-34.6126144552351 -58.413313983497,-34.612854767305 -58.4131162838138,-34.6134164678237 -58.4128700313089,-34.6141162515854 -58.4128163384983,-34.6154434604642</coordinates></LinearRing></outerBoundaryIs></Polygon><Polygon><outerBoundaryIs><LinearRing><coordinates>-58.4115206669653,-34.6328556854546 -58.4115205616099,-34.6328567590231 -58.4114776368229,-34.632967589936 -58.4110061486324,-34.6341837934539 -58.411612990052,-34.6327242761889 -58.411624272758,-34.6318019611816 -58.4115206669653,-34.6328556854546</coordinates></LinearRing></outerBoundaryIs></Polygon><Polygon><outerBoundaryIs><LinearRing><coordinates>-58.4105653273405,-34.6350945967186 -58.4104885535212,-34.6352375264852 -58.4105119449969,-34.6357094526213 -58.4107059921156,-34.6363342037814 -58.4107864408565,-34.6365918835265 -58.4105339317761,-34.6353195245236 -58.4108399125127,-34.6345836087581 -58.4105653273405,-34.6350945967186</coordinates></LinearRing></outerBoundaryIs></Polygon><Polygon><outerBoundaryIs><LinearRing><coordinates>-58.4253970648012,-34.6328763800235 -58.4253749822118,-34.6328720073702 -58.4252364595961,-34.6334958583924 -58.4253970648012,-34.6328763800235</coordinates></LinearRing></outerBoundaryIs></Polygon><Polygon><outerBoundaryIs><LinearRing><coordinates>-58.4186444646611,-34.5977956245259 -58.4160276735561,-34.5978778280947 -58.416017927631,-34.5978545229145 -58.4160004849245,-34.5978547718644 -58.4159880462119,-34.5978549563287 -58.4159992922431,-34.5978817218093 -58.4140437946641,-34.5979195417871 -58.4138403616245,-34.5979270548219 -58.4159165134138,-34.5978856155292 -58.416108087276,-34.5979011903792 -58.4187620148361,-34.5977931196707 -58.4186444646611,-34.5977956245259</coordinates></LinearRing></outerBoundaryIs></Polygon></MultiGeometry>
  </Placemark>
  <Placemark id="mapas_flash_fronteras.10">
	<Style><LineStyle><color>ff0000ff</color></LineStyle><PolyStyle><fill>0</fill></PolyStyle></Style>
	<ExtendedData><SchemaData schemaUrl="#mapas_flash_fronteras">
		<SimpleData name="id">3</SimpleData>
		<SimpleData name="Mapa Flash">C3</SimpleData>
		<SimpleData name="Tipo">Centro</SimpleData>
		<SimpleData name="Tablero">C3 Centro</SimpleData>
	</SchemaData></ExtendedData>
      <MultiGeometry><Polygon><outerBoundaryIs><LinearRing><coordinates>-58.4071230287775,-34.5980533917163 -58.404659919697,-34.5981010290705 -58.4044716175736,-34.5981306750158 -58.4020647494774,-34.5994113220074 -58.4017211817611,-34.5994582261266 -58.4020810120997,-34.5994157841575 -58.4042981496027,-34.5982243815627 -58.4044824593218,-34.5981306750158 -58.4046362710502,-34.5981107653797 -58.4073430271116,-34.5980567394374 -58.4071230287775,-34.5980533917163</coordinates></LinearRing></outerBoundaryIs></Polygon><Polygon><outerBoundaryIs><LinearRing><coordinates>-58.3929237140137,-34.5996874831224 -58.3943508456465,-34.5997549068652 -58.3976153074856,-34.5998177222685 -58.3958361651474,-34.5997549068652 -58.3938954922229,-34.5997192098033 -58.3929305766348,-34.599683512726 -58.3929243249104,-34.5996831585545 -58.3929237140137,-34.5996874831224</coordinates></LinearRing></outerBoundaryIs></Polygon><Polygon><outerBoundaryIs><LinearRing><coordinates>-58.3922056184572,-34.6054862395029 -58.3921938988605,-34.60564708423 -58.3921219390476,-34.6066397554802 -58.3921121033223,-34.6067886986215 -58.392042295026,-34.607851866321 -58.3920334937251,-34.6079865852768 -58.3919606011723,-34.6091693325467 -58.3919519264325,-34.6092881987923 -58.3919516385201,-34.6092921487416 -58.3918751104146,-34.6103405229643 -58.39185936342,-34.6105561115202 -58.3918065100655,-34.6112799533935 -58.3917946537655,-34.6114996727685 -58.3917855653138,-34.6116685470598 -58.3917855120458,-34.6116709268332 -58.3917854986471,-34.6116712973177 -58.3917664119678,-34.6124555362751 -58.391756780132,-34.6126631433344 -58.3917492326358,-34.6128249764305 -58.3917102200409,-34.6138250599363 -58.3917004668181,-34.6140749922185 -58.3916844671612,-34.6146652633682 -58.3916836690173,-34.6146947228838 -58.3916767500396,-34.6149170510623 -58.3916686030854,-34.6151805770538 -58.3916603135526,-34.6155115694603 -58.3916586197716,-34.6157002372585 -58.3916573980345,-34.6158352416757 -58.3916751641708,-34.6168787395394 -58.391696989062,-34.6181592200746 -58.3916659375539,-34.6191093756626 -58.3916226486043,-34.6202246010278 -58.3916104530667,-34.6205395344361 -58.3916104364321,-34.6205398607476 -58.3915536991875,-34.6215599589853 -58.3914983975393,-34.6225550574896 -58.4120895979275,-34.6249954256327 -58.4120940740733,-34.6249692698097 -58.4121266481757,-34.6247781502612 -58.412219729458,-34.6239925980001 -58.4123334453278,-34.6230328941782 -58.4120418689701,-34.6229748135856 -58.4123563839458,-34.6218685673352 -58.4124367949405,-34.6218833904145 -58.4125438594995,-34.6206423349386 -58.412635307155,-34.6195831102842 -58.412642065306,-34.6193945849918 -58.4126822628094,-34.618277379144 -58.4126875829795,-34.6180699094527 -58.4127540403586,-34.6166296036017 -58.4128163384983,-34.6154434604642 -58.4128700313089,-34.6141162515854 -58.4131162838138,-34.6134164678237 -58.413313983497,-34.612854767305 -58.413435338726,-34.6126144552351 -58.4135612124719,-34.6123651304441 -58.4140142540221,-34.6115504940252 -58.4144670312592,-34.6107364191075 -58.4145829782171,-34.609376415152 -58.4146220398713,-34.6088462702349 -58.4146599808851,-34.6081900636068 -58.4140989176591,-34.6079070140655 -58.4139369837026,-34.6073460841006 -58.4139082529045,-34.607246350613 -58.4136448731501,-34.6061168365451 -58.4134123401703,-34.6051190997691 -58.4132288181709,-34.6043317689812 -58.4132219455173,-34.6043023034557 -58.4132120734816,-34.604260039467 -58.4092012430081,-34.6041462017674 -58.4045889615203,-34.6047594555725 -58.3935904441263,-34.6046134431726 -58.3922795854613,-34.6045236521464 -58.3922056184572,-34.6054862395029</coordinates></LinearRing></outerBoundaryIs></Polygon><Polygon><outerBoundaryIs><LinearRing><coordinates>-58.3913289773703,-34.625228615387 -58.391242241311,-34.6263328273267 -58.3912186343523,-34.6266327528496 -58.3911862533883,-34.6270440856335 -58.3911698015239,-34.6272530267853 -58.3921594304389,-34.6272636036676 -58.3922944698736,-34.6272875788277 -58.3929058098001,-34.627396113465 -58.3912383880532,-34.6270365923748 -58.391360676045,-34.6248256495286 -58.3913289773703,-34.625228615387</coordinates></LinearRing></outerBoundaryIs></Polygon></MultiGeometry>
  </Placemark>
  <Placemark id="mapas_flash_fronteras.11">
	<Style><LineStyle><color>ff0000ff</color></LineStyle><PolyStyle><fill>0</fill></PolyStyle></Style>
	<ExtendedData><SchemaData schemaUrl="#mapas_flash_fronteras">
		<SimpleData name="id">15</SimpleData>
		<SimpleData name="Mapa Flash">C15</SimpleData>
		<SimpleData name="Tipo">Centro</SimpleData>
		<SimpleData name="Tablero">C15 Centro</SimpleData>
	</SchemaData></ExtendedData>
      <MultiGeometry><Polygon><outerBoundaryIs><LinearRing><coordinates>-58.4331418075004,-34.6025786183553 -58.4333340897605,-34.6026734568799 -58.4338657223514,-34.6029358466642 -58.4339139202579,-34.6029596624376 -58.4349717427515,-34.6034816154581 -58.4351483602091,-34.6035749700857 -58.4353380037341,-34.6036751558046 -58.4366161625997,-34.6042834180673 -58.4368521539,-34.6043957041701 -58.4370245564896,-34.6044777339618 -58.4370522732679,-34.6044909215821 -58.4370532902874,-34.6044914058704 -58.4370573539651,-34.6044934719289 -58.4371745575828,-34.6045530538966 -58.4371890965911,-34.6045604406513 -58.4379749764426,-34.6049597123982 -58.4385110441802,-34.605232040982 -58.4392016360998,-34.6055828639918 -58.439285357989,-34.6056058398189 -58.4401415480756,-34.6058405879173 -58.4403350497274,-34.605893653577 -58.4414652340414,-34.6062035152908 -58.4415997164355,-34.606239103216 -58.4428240218715,-34.6065715037178 -58.4429800527898,-34.6066123760783 -58.4441672392367,-34.6069229259566 -58.4451314561059,-34.6071751198909 -58.4456777355072,-34.6073574580687 -58.4462474253216,-34.6076156442747 -58.4470400254597,-34.6074182057012 -58.4490615867772,-34.6069146271066 -58.4492899508857,-34.6068576785813 -58.4502369641098,-34.606621784176 -58.4506559556779,-34.6065151315752 -58.4507387492765,-34.6064940829351 -58.4509883574839,-34.6064305500761 -58.4510137652973,-34.6064240828627 -58.4510499036093,-34.6064148843981 -58.4515075640087,-34.606298444697 -58.4520150520166,-34.6061672880027 -58.4524282466382,-34.6060604881746 -58.4529588148562,-34.6059231320756 -58.4530692041112,-34.6058943370582 -58.4540018021279,-34.6056517929635 -58.454982349409,-34.6053967787283 -58.4555245781709,-34.6052557496338 -58.455803357362,-34.6051834393928 -58.45656329131,-34.6049862894851 -58.4580800805224,-34.6045928208871 -58.4584739254559,-34.604491844775 -58.4584758017363,-34.6044913634697 -58.4589348007685,-34.6043736870838 -58.4600209325864,-34.6040951835885 -58.4601239918094,-34.6040687762495 -58.4605391247462,-34.6039623717338 -58.4614693812193,-34.6037254044567 -58.461588281309,-34.6036951225396 -58.4621085137029,-34.603562586181 -58.4629111733522,-34.6033581429758 -58.4630729988728,-34.6033169439607 -58.4643593402439,-34.6029914980637 -58.4649457413074,-34.6028431031173 -58.4652785021155,-34.6027589378576 -58.4657969339579,-34.6026303999148 -58.4660826792748,-34.6025596155593 -58.4673339933893,-34.6022495620118 -58.4674929191544,-34.6022101889691 -58.4675615179203,-34.6021931571013 -58.4687660259264,-34.6018941342808 -58.4689122599929,-34.6018603931331 -58.4692921436233,-34.6021651032078 -58.470194497132,-34.6028061318919 -58.4701990499927,-34.6028086286082 -58.470434096158,-34.6029375301425 -58.4716096370497,-34.6038210727671 -58.471710063571,-34.6038835344526 -58.4718035037288,-34.6039416281862 -58.4726492421436,-34.6044675682139 -58.4729834864183,-34.6046743791501 -58.4730385977442,-34.6047084598298 -58.4740166366363,-34.6053111422447 -58.4749324276302,-34.6041740394436 -58.4757052187982,-34.6032096982365 -58.4757362996712,-34.6031708905229 -58.4763815971173,-34.602365718951 -58.4769714409304,-34.6015839310813 -58.4774987633725,-34.6008251076105 -58.476669510994,-34.6003562963919 -58.4765530831113,-34.600290469173 -58.4763923124358,-34.6001995767955 -58.4777284708533,-34.5999109586887 -58.477793857845,-34.5998968313159 -58.4785428154048,-34.5997350048728 -58.4788312666633,-34.5996709502012 -58.4797472529919,-34.5992763036973 -58.4807802385542,-34.5988312080854 -58.4821273622451,-34.5982507672892 -58.4828436710217,-34.5979435456451 -58.4829839824668,-34.5978856335159 -58.4829992791041,-34.5978810876979 -58.4832881108843,-34.5977953030342 -58.4834561575031,-34.5977580801127 -58.4834622195535,-34.5977575454269 -58.4848534629526,-34.5976347865189 -58.4851810887768,-34.5976073308348 -58.4861304973603,-34.597537431897 -58.4864869084867,-34.5975112346055 -58.4866810822727,-34.5974969709224 -58.4871433524001,-34.5974629344484 -58.4873536223273,-34.5974474684516 -58.4877982622605,-34.5974163203801 -58.4878245259718,-34.5974144769324 -58.4885444671315,-34.597363980063 -58.4895267456312,-34.5972965816907 -58.490186167071,-34.5972500953407 -58.4912174975615,-34.5971809126816 -58.4924899237548,-34.5970955701185 -58.4928202154594,-34.5970734171968 -58.4929088408056,-34.5970674728058 -58.4934176909747,-34.5970334010214 -58.4947157465586,-34.5969477114854 -58.4967848635469,-34.5968111602237 -58.4971282395771,-34.5967885277424 -58.4971750925229,-34.5968173886491 -58.4983848398831,-34.5963676568873 -58.4995508073052,-34.5959341955854 -58.4996339138281,-34.5959033239632 -58.4997866781428,-34.59584651373 -58.5001263357934,-34.5957202088306 -58.5007096945584,-34.5955034008063 -58.5017928730893,-34.5951008596996 -58.5027574305769,-34.5947423636452 -58.5028766373028,-34.5946980266107 -58.5031804411163,-34.594582187145 -58.503543766591,-34.5944501199565 -58.5030835155438,-34.5943822420751 -58.5034718173482,-34.5939535746883 -58.5033113250844,-34.5938561595895 -58.502141964532,-34.5931334165604 -58.5019281473435,-34.5930012265228 -58.5008170778121,-34.5923152840406 -58.4994872756846,-34.5914941808615 -58.4982024764883,-34.590700937972 -58.4970663400383,-34.5899994752261 -58.4959279221623,-34.5892965222657 -58.4955923210638,-34.5890892809296 -58.4953611476231,-34.5889458168122 -58.4947943785833,-34.5885941919342 -58.4942253127688,-34.5882410866264 -58.4938904862235,-34.5880333472817 -58.4938710538411,-34.5880210954017 -58.4681046321417,-34.5729282887436 -58.4681081008001,-34.5729241487157 -58.4680812613894,-34.5729088400037 -58.4679460874952,-34.5728310406543 -58.4673055048836,-34.5725333652221 -58.4672254469024,-34.5725840307564 -58.4633471843351,-34.575266626067 -58.4602330518389,-34.57836487857 -58.4602344309555,-34.5783647322885 -58.4510310881936,-34.5884044710096 -58.4452479967897,-34.5939830508082 -58.4413452970693,-34.5975461360993 -58.4384360118231,-34.600057727332 -58.4322981295355,-34.6021603964663 -58.4322951067261,-34.6021607023316 -58.4331418075004,-34.6025786183553</coordinates></LinearRing></outerBoundaryIs></Polygon><Polygon><outerBoundaryIs><LinearRing><coordinates>-58.4444091451271,-34.5832239110314 -58.4451051632216,-34.5829515423196 -58.4444083875866,-34.5832213162549 -58.4444091451271,-34.5832239110314</coordinates></LinearRing></outerBoundaryIs></Polygon><Polygon><outerBoundaryIs><LinearRing><coordinates>-58.4602152801391,-34.5783667635952 -58.4579611501234,-34.5785258439771 -58.4532240356963,-34.5798081198638 -58.4529961091958,-34.5798963672507 -58.4533795742817,-34.5797714667754 -58.4540983488541,-34.5795820926223 -58.4579146182157,-34.5786107923455 -58.4602152801391,-34.5783667635952</coordinates></LinearRing></outerBoundaryIs></Polygon><Polygon><outerBoundaryIs><LinearRing><coordinates>-58.4528115494123,-34.5799678241395 -58.4511869344013,-34.5805968340572 -58.4525601712692,-34.580071308302 -58.4528115494123,-34.5799678241395</coordinates></LinearRing></outerBoundaryIs></Polygon></MultiGeometry>
  </Placemark>
</Folder>
</Document></kml>
