<?xml version="1.0" encoding="utf-8" ?>
<kml xmlns="http://www.opengis.net/kml/2.2">
<Document id="root_doc">
<Schema name="recorridos_flash_centro" id="recorridos_flash_centro">
	<SimpleField name="id" type="float"></SimpleField>
	<SimpleField name="Mapas flas" type="string"></SimpleField>
	<SimpleField name="area2" type="float"></SimpleField>
</Schema>
<Folder><name>recorridos_flash_centro</name>
  <Placemark id="recorridos_flash_centro.1">
	<name>Microcentro</name>
	<Style><LineStyle><color>ff0000ff</color></LineStyle><PolyStyle><fill>0</fill></PolyStyle></Style>
	<ExtendedData><SchemaData schemaUrl="#recorridos_flash_centro">
		<SimpleData name="id">21</SimpleData>
		<SimpleData name="Mapas flas">Microcentro</SimpleData>
		<SimpleData name="area2">1.559</SimpleData>
	</SchemaData></ExtendedData>
      <MultiGeometry><Polygon><outerBoundaryIs><LinearRing><coordinates>-58.3704277514552,-34.6030805203188 -58.3699087306258,-34.6063595738781 -58.370525944585,-34.6074910482258 -58.3712273240842,-34.607883596948 -58.3733875729416,-34.6080452341177 -58.3732332694518,-34.6091074134049 -58.369726371956,-34.6087841428864 -58.3696842891861,-34.6098463127208 -58.3692915166665,-34.6171310461184 -58.3805837266029,-34.617638991007 -58.3812570509221,-34.6036116434154 -58.3704277514552,-34.6030805203188</coordinates></LinearRing></outerBoundaryIs></Polygon></MultiGeometry>
  </Placemark>
  <Placemark id="recorridos_flash_centro.2">
	<name>Macrocentro</name>
	<Style><LineStyle><color>ff0000ff</color></LineStyle><PolyStyle><fill>0</fill></PolyStyle></Style>
	<ExtendedData><SchemaData schemaUrl="#recorridos_flash_centro">
		<SimpleData name="id">22</SimpleData>
		<SimpleData name="Mapas flas">Macrocentro</SimpleData>
		<SimpleData name="area2">1.696</SimpleData>
	</SchemaData></ExtendedData>
      <MultiGeometry><Polygon><outerBoundaryIs><LinearRing><coordinates>-58.3809764991224,-34.6175928143274 -58.3933806738816,-34.6182172173325 -58.3933254540404,-34.6139869290812 -58.3937282788904,-34.6044965140428 -58.3941183582746,-34.6044844730718 -58.3817059338016,-34.6039233879987 -58.3809764991224,-34.6175928143274</coordinates></LinearRing></outerBoundaryIs></Polygon></MultiGeometry>
  </Placemark>
  <Placemark id="recorridos_flash_centro.3">
	<name>Almagro Norte</name>
	<Style><LineStyle><color>ff0000ff</color></LineStyle><PolyStyle><fill>0</fill></PolyStyle></Style>
	<ExtendedData><SchemaData schemaUrl="#recorridos_flash_centro">
		<SimpleData name="id">23</SimpleData>
		<SimpleData name="Mapas flas">Almagro Norte</SimpleData>
		<SimpleData name="area2">2.851</SimpleData>
	</SchemaData></ExtendedData>
      <MultiGeometry><Polygon><outerBoundaryIs><LinearRing><coordinates>-58.4055579313477,-34.6045963507175 -58.4061014985987,-34.6074298304569 -58.4060810002397,-34.6087810279692 -58.4067505284216,-34.6088412995576 -58.4068074080285,-34.6078998019473 -58.4155489680847,-34.6085069568185 -58.4220405907424,-34.6098426819067 -58.4259441706549,-34.6110186515205 -58.4373607148311,-34.6161935872119 -58.4399250462922,-34.6089081102797 -58.4399601741204,-34.6058144802762 -58.443092468331,-34.6027554547203 -58.4402888190697,-34.6010504879548 -58.4386568441265,-34.6000171577286 -58.434346600146,-34.6013540549606 -58.432551489724,-34.6019385966068 -58.4212150884913,-34.6031880593686 -58.4167342580577,-34.6036565581579 -58.412967938423,-34.604184862211 -58.4089369563903,-34.6040452664936 -58.4055579313477,-34.6045963507175</coordinates></LinearRing></outerBoundaryIs></Polygon></MultiGeometry>
  </Placemark>
  <Placemark id="recorridos_flash_centro.4">
	<name>Almagro Sur</name>
	<Style><LineStyle><color>ff0000ff</color></LineStyle><PolyStyle><fill>0</fill></PolyStyle></Style>
	<ExtendedData><SchemaData schemaUrl="#recorridos_flash_centro">
		<SimpleData name="id">24</SimpleData>
		<SimpleData name="Mapas flas">Almagro Sur</SimpleData>
		<SimpleData name="area2">2.850</SimpleData>
	</SchemaData></ExtendedData>
      <MultiGeometry><Polygon><outerBoundaryIs><LinearRing><coordinates>-58.4093028624898,-34.6089604078166 -58.409033008326,-34.609093202736 -58.4081418407397,-34.6196187921164 -58.4088787093932,-34.6199265733168 -58.4344521306533,-34.6231228701338 -58.4352635834855,-34.6191769789404 -58.4371077944678,-34.6167486449553 -58.4209893904825,-34.609736430935 -58.4161575577088,-34.6089471413238 -58.4093028624898,-34.6089604078166</coordinates></LinearRing></outerBoundaryIs></Polygon></MultiGeometry>
  </Placemark>
  <Placemark id="recorridos_flash_centro.5">
	<name>Boedo</name>
	<Style><LineStyle><color>ff0000ff</color></LineStyle><PolyStyle><fill>0</fill></PolyStyle></Style>
	<ExtendedData><SchemaData schemaUrl="#recorridos_flash_centro">
		<SimpleData name="id">26</SimpleData>
		<SimpleData name="Mapas flas">Boedo</SimpleData>
		<SimpleData name="area2">3.560</SimpleData>
	</SchemaData></ExtendedData>
      <MultiGeometry><Polygon><outerBoundaryIs><LinearRing><coordinates>-58.4118236619004,-34.6201027625654 -58.409463071843,-34.6198295815862 -58.4070655975661,-34.6194653388818 -58.405405807682,-34.6291779305731 -58.4116023565825,-34.6302401763167 -58.4115839144727,-34.6331385205165 -58.4102560825654,-34.6356270703346 -58.4114363775941,-34.6381617882262 -58.4237372648461,-34.6402246214662 -58.4269277498455,-34.6270685737074 -58.4333640461737,-34.6278425166276 -58.4344521306533,-34.6231835746868 -58.4125244620737,-34.6202848827187 -58.4118236619004,-34.6201027625654</coordinates></LinearRing></outerBoundaryIs></Polygon></MultiGeometry>
  </Placemark>
  <Placemark id="recorridos_flash_centro.6">
	<name>Caballito Sur</name>
	<Style><LineStyle><color>ff0000ff</color></LineStyle><PolyStyle><fill>0</fill></PolyStyle></Style>
	<ExtendedData><SchemaData schemaUrl="#recorridos_flash_centro">
		<SimpleData name="id">27</SimpleData>
		<SimpleData name="Mapas flas">Caballito Sur</SimpleData>
		<SimpleData name="area2">2.833</SimpleData>
	</SchemaData></ExtendedData>
      <MultiGeometry><Polygon><outerBoundaryIs><LinearRing><coordinates>-58.4368864891499,-34.6167486449553 -58.4355586572426,-34.6186913178271 -58.4334193725032,-34.6279790940406 -58.4638336547243,-34.6343643526589 -58.4660444832301,-34.6284218769407 -58.4546436063224,-34.624287811661 -58.4525359366283,-34.6234784247409 -58.4368864891499,-34.6167486449553</coordinates></LinearRing></outerBoundaryIs></Polygon></MultiGeometry>
  </Placemark>
  <Placemark id="recorridos_flash_centro.7">
	<name>Caballito Norte</name>
	<Style><LineStyle><color>ff0000ff</color></LineStyle><PolyStyle><fill>0</fill></PolyStyle></Style>
	<ExtendedData><SchemaData schemaUrl="#recorridos_flash_centro">
		<SimpleData name="id">28</SimpleData>
		<SimpleData name="Mapas flas">Caballito Norte</SimpleData>
		<SimpleData name="area2">3.372</SimpleData>
	</SchemaData></ExtendedData>
      <MultiGeometry><Polygon><outerBoundaryIs><LinearRing><coordinates>-58.4668551203488,-34.6273303555367 -58.4701713631074,-34.6185370204894 -58.4596330805635,-34.6138064272551 -58.4466893181965,-34.6077313138669 -58.4463900430455,-34.6076492067172 -58.4501121164801,-34.6067107774638 -58.4462480553743,-34.6076359773159 -58.4400304297769,-34.6059879579062 -58.4400304297769,-34.6089659340422 -58.4374660983157,-34.6164537770927 -58.4668551203488,-34.6273303555367</coordinates></LinearRing></outerBoundaryIs></Polygon></MultiGeometry>
  </Placemark>
  <Placemark id="recorridos_flash_centro.8">
	<name>Once</name>
	<Style><LineStyle><color>ff0000ff</color></LineStyle><PolyStyle><fill>0</fill></PolyStyle></Style>
	<ExtendedData><SchemaData schemaUrl="#recorridos_flash_centro">
		<SimpleData name="id">25</SimpleData>
		<SimpleData name="Mapas flas">Once</SimpleData>
		<SimpleData name="area2">3.488</SimpleData>
	</SchemaData></ExtendedData>
      <MultiGeometry><Polygon><outerBoundaryIs><LinearRing><coordinates>-58.3934261602529,-34.6181308748205 -58.3917586464129,-34.6181904768276 -58.391131614679,-34.6271748015944 -58.4010534697638,-34.6285709268989 -58.405295155023,-34.6291475804949 -58.4068811764678,-34.6194653388818 -58.4080478831402,-34.6195536347411 -58.4089087314506,-34.6090250122982 -58.4068705042324,-34.6089090864155 -58.4059995815391,-34.6088333258438 -58.4058429578267,-34.6088495837623 -58.4059875487308,-34.608775205386 -58.4060598441829,-34.6076297699758 -58.405911723037,-34.6067306591333 -58.4056948366807,-34.6054810616786 -58.4055321719135,-34.6046479862617 -58.4045381094472,-34.6047000537201 -58.3941183582746,-34.6044844730718 -58.3937534554435,-34.6045379592614 -58.3933254540404,-34.6139662088327 -58.3934261602529,-34.6181308748205</coordinates></LinearRing></outerBoundaryIs></Polygon></MultiGeometry>
  </Placemark>
  <Placemark id="recorridos_flash_centro.9">
	<name>Villa Crespo</name>
	<Style><LineStyle><color>ff0000ff</color></LineStyle><PolyStyle><fill>0</fill></PolyStyle></Style>
	<ExtendedData><SchemaData schemaUrl="#recorridos_flash_centro">
		<SimpleData name="id">29</SimpleData>
		<SimpleData name="Mapas flas">Villa Crespo</SimpleData>
		<SimpleData name="area2">3.797</SimpleData>
	</SchemaData></ExtendedData>
      <MultiGeometry><Polygon><outerBoundaryIs><LinearRing><coordinates>-58.4738260351254,-34.605349703006 -58.4774406886508,-34.6007957601081 -58.4641623695782,-34.5964541020375 -58.4599583534376,-34.5964911871175 -58.4578040205937,-34.5964160436671 -58.4549376624877,-34.5958148936168 -58.4466054810266,-34.5931142106328 -58.4383434158259,-34.5998849415621 -58.4431761593538,-34.6027554547203 -58.4399540549787,-34.6058208624762 -58.4401842052912,-34.6057519781515 -58.4461628703909,-34.6075051489002 -58.4596655146531,-34.6138696196952 -58.4626103260256,-34.6074540223013 -58.4583374624656,-34.6044123806843 -58.4691048550107,-34.6019190892249 -58.4738260351254,-34.605349703006</coordinates></LinearRing></outerBoundaryIs></Polygon></MultiGeometry>
  </Placemark>
  <Placemark id="recorridos_flash_centro.10">
	<name>Agronomía</name>
	<Style><LineStyle><color>ff0000ff</color></LineStyle><PolyStyle><fill>0</fill></PolyStyle></Style>
	<ExtendedData><SchemaData schemaUrl="#recorridos_flash_centro">
		<SimpleData name="id">30</SimpleData>
		<SimpleData name="Mapas flas">Agronomía</SimpleData>
		<SimpleData name="area2">3.543</SimpleData>
	</SchemaData></ExtendedData>
      <MultiGeometry><Polygon><outerBoundaryIs><LinearRing><coordinates>-58.478056516757,-34.5787069396258 -58.4771799579077,-34.5780232092783 -58.474275371295,-34.5812487119537 -58.470808171782,-34.5871546170072 -58.4718835019108,-34.5884187663016 -58.4758013993801,-34.5921382630754 -58.4768422582088,-34.5951494236823 -58.4767827805614,-34.5952718262764 -58.4769017358561,-34.5958593562177 -58.4774072958586,-34.5967651234024 -58.4785968488056,-34.599580282678 -58.4786177410605,-34.5996710782467 -58.4831237791001,-34.5976186850651 -58.4973628593051,-34.5966295618078 -58.5034309905318,-34.5944534491819 -58.5030705074886,-34.5941567021343 -58.5034309905318,-34.5936126631273 -58.4789466010305,-34.5791901557489 -58.478056516757,-34.5787069396258</coordinates></LinearRing></outerBoundaryIs></Polygon></MultiGeometry>
  </Placemark>
  <Placemark id="recorridos_flash_centro.11">
	<name>Chacarita</name>
	<Style><LineStyle><color>ff0000ff</color></LineStyle><PolyStyle><fill>0</fill></PolyStyle></Style>
	<ExtendedData><SchemaData schemaUrl="#recorridos_flash_centro">
		<SimpleData name="id">31</SimpleData>
		<SimpleData name="Mapas flas">Chacarita</SimpleData>
		<SimpleData name="area2">3.426</SimpleData>
	</SchemaData></ExtendedData>
      <MultiGeometry><Polygon><outerBoundaryIs><LinearRing><coordinates>-58.4771799579077,-34.5781371647268 -58.4670522434256,-34.5723181669864 -58.4634474129939,-34.5750884825431 -58.4609540719454,-34.5776608452621 -58.4579200063321,-34.5805546365491 -58.4480182375059,-34.5922529903187 -58.4503551409299,-34.5942218249436 -58.4552662895317,-34.5955443746748 -58.4586109321648,-34.5961844524993 -58.451881915359,-34.5900515925559 -58.460533508395,-34.5854021873715 -58.4665509502114,-34.5906533873289 -58.4640838679087,-34.5925593561423 -58.4652984315039,-34.5962774317434 -58.4776749452717,-34.5996781995444 -58.4762177429116,-34.5965937628007 -58.4758013993801,-34.5951004620242 -58.4717866581838,-34.5950759820392 -58.4737791593701,-34.5924565209806 -58.4757716605564,-34.5923096328682 -58.4716052291413,-34.5883521521256 -58.4707284660461,-34.587236640511 -58.4737198571868,-34.5818596234691 -58.4753807055329,-34.5798844620403 -58.4761649950296,-34.5791247720694 -58.4771799579077,-34.5781371647268</coordinates></LinearRing></outerBoundaryIs></Polygon></MultiGeometry>
  </Placemark>
  <Placemark id="recorridos_flash_centro.12">
	<name>San Telmo - Constitución</name>
	<Style><LineStyle><color>ff0000ff</color></LineStyle><PolyStyle><fill>0</fill></PolyStyle></Style>
	<ExtendedData><SchemaData schemaUrl="#recorridos_flash_centro">
		<SimpleData name="id">32</SimpleData>
		<SimpleData name="Mapas flas">San Telmo-Constituci+on$area / 1000000</SimpleData>
		<SimpleData name="area2">2.828</SimpleData>
	</SchemaData></ExtendedData>
      <MultiGeometry><Polygon><outerBoundaryIs><LinearRing><coordinates>-58.3902772309482,-34.6340374871511 -58.3911380943702,-34.6274914104909 -58.3916294057787,-34.6181654395623 -58.3693893760219,-34.6172220026298 -58.368340374927,-34.6214574874057 -58.3681811237036,-34.6270597541164 -58.3706097048602,-34.6294184901007 -58.3708087688894,-34.6266993857693 -58.3746706110565,-34.6268304289857 -58.3790500196995,-34.6292546911574 -58.3796870245931,-34.6279442879689 -58.3813591624386,-34.6280098086198 -58.3813591624386,-34.6308271476633 -58.3832701771193,-34.6322685399445 -58.3902772309482,-34.6340374871511</coordinates></LinearRing></outerBoundaryIs></Polygon></MultiGeometry>
  </Placemark>
  <Placemark id="recorridos_flash_centro.13">
	<name>Parque Chacabuco</name>
	<Style><LineStyle><color>ff0000ff</color></LineStyle><PolyStyle><fill>0</fill></PolyStyle></Style>
	<ExtendedData><SchemaData schemaUrl="#recorridos_flash_centro">
		<SimpleData name="id">33</SimpleData>
		<SimpleData name="Mapas flas">Parque Chacabuco</SimpleData>
		<SimpleData name="area2">2.673</SimpleData>
	</SchemaData></ExtendedData>
      <MultiGeometry><Polygon><outerBoundaryIs><LinearRing><coordinates>-58.4513499712459,-34.6307971071374 -58.4516430117728,-34.6307213895927 -58.4266400149203,-34.6270039989457 -58.4258338699995,-34.6314559686272 -58.4254872133993,-34.6324400527756 -58.4314285750841,-34.6333885894265 -58.4325830885143,-34.6341390393809 -58.4453231863851,-34.6368220233509 -58.4494767845143,-34.6389276636456 -58.4530052668094,-34.6430004424125 -58.4537771223115,-34.643702296156 -58.4563949381061,-34.6413766578688 -58.4629166548733,-34.6360108978149 -58.4641158226134,-34.6344306909595 -58.4635113938842,-34.6344800821984 -58.4513499712459,-34.6307971071374</coordinates></LinearRing></outerBoundaryIs></Polygon></MultiGeometry>
  </Placemark>
</Folder>
</Document></kml>
